OBJECT_NAME,OBJECT_ID,EPOCH,MEAN_MOTION,ECCENTRICITY,INCLINATION,RA_OF_ASC_NODE,ARG_OF_PERICENTER,MEAN_ANOMALY,EPHEMERIS_TYPE,CLASSIFICATION_TYPE,NORAD_CAT_ID,ELEMENT_SET_NO,REV_AT_EPOCH,BSTAR,MEAN_MOTION_DOT,MEAN_MOTION_DDOT
ATLAS CENTAUR 2,1963-047A,2026-06-06T09:32:58.644672,14.12493924,.05460308,30.3534,59.7297,142.3465,221.6673,0,U,694,999,14417,.25455978E-3,.2183E-4,0
THOR AGENA D R/B,1964-002A,2026-06-06T18:15:54.535968,14.34061417,.00328733,99.1157,175.9305,1.2137,358.9120,0,U,733,999,25106,.90983578E-4,.207E-5,0
SL-3 R/B,1964-053B,2026-06-06T10:46:57.830880,14.61421869,.00811948,65.0772,70.9968,264.4590,94.7245,0,U,877,999,27976,.59214219E-4,.181E-5,0
SL-8 R/B,1967-045B,2026-06-06T18:36:05.674752,14.45678001,.00638484,74.0094,181.7055,168.7373,191.5232,0,U,2802,999,10189,.83213612E-4,.274E-5,0
SL-8 R/B,1968-040B,2026-06-06T19:18:49.701024,15.03764107,.00259862,74.0294,131.5232,286.4058,73.4274,0,U,3230,999,10340,.28015587E-3,.3834E-4,0
OAO 2,1968-110A,2026-06-06T15:18:18.727200,14.47347782,.00057399,34.9922,128.5827,196.4324,163.6181,0,U,3597,999,3199,.59526853E-4,.202E-5,0
ISIS 1,1969-009A,2026-06-06T15:49:12.256896,11.30432380,.17059678,88.4418,145.5567,269.5063,71.1233,0,U,3669,999,35858,.55951613E-4,.75E-6,0
SERT 2,1970-009A,2026-06-06T14:24:37.870848,13.58738403,.0004132,99.2839,95.8818,306.2768,226.6768,0,U,4327,999,79196,.55491E-4,-.1E-7,0
SL-3 R/B,1971-028B,2026-06-06T21:59:57.450624,15.68777537,.00136507,81.2334,301.1867,318.6693,41.3530,0,U,5118,999,263,.43760352E-3,.50436E-3,0
ASTEX 1,1971-089A,2026-06-06T14:07:57.707904,14.50843418,.00171125,92.7001,180.4425,137.7669,222.4859,0,U,5560,999,87519,.10874549E-3,.428E-5,0
SL-8 R/B,1971-119B,2026-06-06T20:54:17.618400,14.39436594,.05438474,73.8878,8.8001,316.8478,39.1228,0,U,5730,999,66831,.25595804E-3,.4976E-4,0
OAO 3 (COPERNICUS),1972-065A,2026-06-06T17:24:26.752032,14.60054634,.0006544,35.0040,150.0161,174.2909,352.0510,0,U,6153,999,85921,.67081958E-4,.306E-5,0
ATLAS CENTAUR R/B,1972-065B,2026-06-06T16:07:00.092640,14.77899624,.00330509,35.0000,144.1894,38.6057,321.6999,0,U,6155,999,85443,.16450054E-3,.1189E-4,0
SL-8 R/B,1975-112B,2026-06-06T14:34:18.778656,14.38241224,.00167868,74.0602,215.3374,283.5355,76.3929,0,U,8459,999,64465,.65609229E-4,.173E-5,0
SL-3 R/B,1977-057B,2026-06-06T19:23:54.681792,15.47664836,.00059704,97.5843,333.8485,330.5427,29.5485,0,U,10114,999,68210,.25325976E-3,.12998E-3,0
SEASAT 1,1978-064A,2026-06-06T15:45:48.034080,14.46235255,.00021057,108.0163,312.1846,241.5516,118.5417,0,U,10967,999,51937,.1351071E-3,.347E-5,0
SL-14 R/B,1979-011B,2026-06-06T20:20:21.653376,14.92004794,.0017363,82.5244,11.9674,117.0799,243.2195,0,U,11267,999,54207,.50350787E-4,.538E-5,0
SL-8 R/B,1979-089B,2026-06-06T15:54:18.897408,14.42399151,.00148288,74.0695,286.3396,74.3565,285.9226,0,U,11574,999,44893,.83085359E-4,.249E-5,0
SL-14 R/B,1980-005B,2026-06-06T15:37:03.766656,14.91020453,.00145986,82.5149,222.8343,222.5186,137.4903,0,U,11672,999,48974,.46682737E-4,.487E-5,0
SL-8 R/B,1981-003B,2026-06-06T15:26:54.761568,15.13912570,.02504609,82.9375,207.5660,228.1522,129.8094,0,U,12139,999,32812,.42877993E-3,.17312E-3,0
SL-3 R/B,1981-046B,2026-06-06T21:15:17.201664,15.43984898,.00193371,81.2301,182.4765,71.6445,288.6900,0,U,12465,999,45218,.27085731E-3,.12458E-3,0
SL-3 R/B,1981-103B,2026-06-06T22:20:48.015456,15.22199025,.0012565,81.1581,108.6809,352.5547,7.5496,0,U,12904,999,98680,.24903227E-3,.5755E-4,0
SL-3 R/B,1982-013B,2026-06-06T23:19:23.487168,15.22723687,.00207862,81.1745,56.0472,236.6827,123.2415,0,U,13068,999,41793,.15846312E-3,.3742E-4,0
SL-3 R/B,1982-039B,2026-06-06T20:00:07.564032,15.10475568,.00300406,81.1422,113.0512,29.8394,330.4536,0,U,13154,999,39509,.21279769E-3,.3562E-4,0
SL-3 R/B,1982-079B,2026-06-06T21:14:59.311680,15.25702693,.00229271,81.1459,87.6708,221.0843,138.8666,0,U,13403,999,39129,.22604453E-3,.5828E-4,0
SL-14 R/B,1982-092B,2026-06-06T16:30:14.028768,14.86740299,.00205862,82.5687,58.1273,10.4752,51.2744,0,U,13553,999,34215,.49974949E-4,.471E-5,0
SL-3 R/B,1983-010B,2026-06-06T15:49:36.388416,15.48950426,.00159492,81.1020,252.9277,97.5010,262.8049,0,U,13819,999,37170,.32769216E-3,.17834E-3,0
SL-3 R/B,1983-075B,2026-06-06T20:53:08.583936,15.40305705,.00187784,97.6108,165.9546,269.5097,90.3997,0,U,14208,999,34387,.27197859E-3,.1094E-3,0
COSMOS 1536,1984-013A,2026-06-06T20:39:24.181056,15.24945151,.00134243,82.5450,19.1295,335.2123,24.8468,0,U,14699,999,28620,.23499119E-3,.5899E-4,0
SL-14 R/B,1984-027B,2026-06-06T17:03:40.243680,14.86051985,.00189675,82.5406,161.5417,42.7801,317.4887,0,U,14820,999,26085,.51100328E-4,.473E-5,0
