ATLAS CENTAUR 2         
1 00694U 63047A   26157.39790098  .00002183  00000+0  25456-3 0  9993
2 00694  30.3534  59.7297 0546030 142.3465 221.6673 14.12493924144174
THOR AGENA D R/B        
1 00733U 64002A   26157.76104787  .00000207  00000+0  90984-4 0  9998
2 00733  99.1157 175.9305 0032873   1.2137 358.9120 14.34061417251067
SL-3 R/B                
1 00877U 64053B   26157.44928045  .00000181  00000+0  59214-4 0  9991
2 00877  65.0772  70.9968 0081194 264.4590  94.7245 14.61421869279767
SL-8 R/B                
1 02802U 67045B   26157.77506568  .00000274  00000+0  83214-4 0  9993
2 02802  74.0094 181.7055 0063848 168.7373 191.5232 14.45678001101897
SL-8 R/B                
1 03230U 68040B   26157.80474191  .00003834  00000+0  28016-3 0  9998
2 03230  74.0294 131.5232 0025986 286.4058  73.4274 15.03764107103405
OAO 2                   
1 03597U 68110A   26157.63771675  .00000202  00000+0  59527-4 0  9998
2 03597  34.9922 128.5827 0005739 196.4324 163.6181 14.47347782 31996
ISIS 1                  
1 03669U 69009A   26157.65916964  .00000075  00000+0  55952-4 0  9996
2 03669  88.4418 145.5567 1705967 269.5063  71.1233 11.30432380358589
SERT 2                  
1 04327U 70009A   26157.60043832 -.00000001  00000+0  55491-4 0  9998
2 04327  99.2839  95.8818 0004132 306.2768 226.6768 13.58738403791960
SL-3 R/B                
1 05118U 71028B   26157.91663716  .00050436  00000+0  43760-3 0  9993
2 05118  81.2334 301.1867 0013650 318.6693  41.3530 15.68777537  2638
ASTEX 1                 
1 05560U 71089A   26157.58886236  .00000428  00000+0  10875-3 0  9995
2 05560  92.7001 180.4425 0017112 137.7669 222.4859 14.50843418875192
SL-8 R/B                
1 05730U 71119B   26157.87103725  .00004976  00000+0  25596-3 0  9993
2 05730  73.8878   8.8001 0543847 316.8478  39.1228 14.39436594668310
OAO 3 (COPERNICUS)      
1 06153U 72065A   26157.72530963  .00000306  00000+0  67082-4 0  9996
2 06153  35.0040 150.0161 0006544 174.2909 352.0510 14.60054634859218
ATLAS CENTAUR R/B       
1 06155U 72065B   26157.67152885  .00001189  00000+0  16450-3 0  9997
2 06155  35.0000 144.1894 0033050  38.6057 321.6999 14.77899624854438
SL-8 R/B                
1 08459U 75112B   26157.60716179  .00000173  00000+0  65609-4 0  9990
2 08459  74.0602 215.3374 0016786 283.5355  76.3929 14.38241224644653
SL-3 R/B                
1 10114U 77057B   26157.80827178  .00012998  00000+0  25326-3 0  9994
2 10114  97.5843 333.8485 0005970 330.5427  29.5485 15.47664836682104
SEASAT 1                
1 10967U 78064A   26157.65680595  .00000347  00000+0  13511-3 0  9990
2 10967 108.0163 312.1846 0002105 241.5516 118.5417 14.46235255519370
SL-14 R/B               
1 11267U 79011B   26157.84747284  .00000538  00000+0  50351-4 0  9993
2 11267  82.5244  11.9674 0017363 117.0799 243.2195 14.92004794542070
SL-8 R/B                
1 11574U 79089B   26157.66271872  .00000249  00000+0  83085-4 0  9993
2 11574  74.0695 286.3396 0014828  74.3565 285.9226 14.42399151448932
SL-14 R/B               
1 11672U 80005B   26157.65073804  .00000487  00000+0  46683-4 0  9993
2 11672  82.5149 222.8343 0014598 222.5186 137.4903 14.91020453489743
SL-8 R/B                
1 12139U 81003B   26157.64368937  .00017312  00000+0  42878-3 0  9990
2 12139  82.9375 207.5660 0250460 228.1522 129.8094 15.13912570328120
SL-3 R/B                
1 12465U 81046B   26157.88561576  .00012458  00000+0  27086-3 0  9999
2 12465  81.2301 182.4765 0019337  71.6445 288.6900 15.43984898452180
SL-3 R/B                
1 12904U 81103B   26157.93111129  .00005755  00000+0  24903-3 0  9999
2 12904  81.1581 108.6809 0012565 352.5547   7.5496 15.22199025986802
SL-3 R/B                
1 13068U 82013B   26157.97179962  .00003742  00000+0  15846-3 0  9995
2 13068  81.1745  56.0472 0020786 236.6827 123.2415 15.22723687417932
SL-3 R/B                
1 13154U 82039B   26157.83342088  .00003562  00000+0  21280-3 0  9994
2 13154  81.1422 113.0512 0030040  29.8394 330.4536 15.10475568395091
SL-3 R/B                
1 13403U 82079B   26157.88540870  .00005828  00000+0  22604-3 0  9997
2 13403  81.1459  87.6708 0022927 221.0843 138.8666 15.25702693391291
SL-14 R/B               
1 13553U 82092B   26157.68766237  .00000471  00000+0  49975-4 0  9993
2 13553  82.5687  58.1273 0020586  10.4752  51.2744 14.86740299342159
SL-3 R/B                
1 13819U 83010B   26157.65944894  .00017834  00000+0  32769-3 0  9996
2 13819  81.1020 252.9277 0015949  97.5010 262.8049 15.48950426371703
SL-3 R/B                
1 14208U 83075B   26157.87023824  .00010940  00000+0  27198-3 0  9996
2 14208  97.6108 165.9546 0018778 269.5097  90.3997 15.40305705343875
COSMOS 1536             
1 14699U 84013A   26157.86069654  .00005899  00000+0  23499-3 0  9990
2 14699  82.5450  19.1295 0013424 335.2123  24.8468 15.24945151286202
SL-14 R/B               
1 14820U 84027B   26157.71088245  .00000473  00000+0  51100-4 0  9996
2 14820  82.5406 161.5417 0018967  42.7801 317.4887 14.86051985260856
